IRIDIUM 33 DEB          
1 35078U 97051PD  17345.96016406  .00035465  00000-0  16905-2 0  9993
2 35078  86.3637 167.1853 0004971 345.4687 167.1058 15.18945890457012
